ONEWEB-0597             
1 54663U 22166X   24142.24670595  .00000016  00000+0  63966-5 0  9993
2 54663  87.9319  34.6474 0001498  80.3851 279.7452 13.21828263 72010
ONEWEB-0600             
1 54664U 22166Y   24141.77517497 -.00000220  00000+0 -56442-3 0  9990
2 54664  87.9312  34.7832 0001645  81.7429 278.3891 13.21828132 71929
ONEWEB-0601             
1 54665U 22166Z   24142.14577096  .00000083  00000+0  16873-3 0  9993
2 54665  87.9320  34.6717 0001428  67.3109 292.8176 13.21828084 72153
ONEWEB-0602             
1 54666U 22166AA  24142.26247848  .00000107  00000+0  22864-3 0  9990
2 54666  87.9320  34.6527 0001474  77.9805 282.1494 13.21827699 72026
ONEWEB-0603             
1 54667U 22166AB  24142.26722017  .00000031  00000+0  43719-4 0  9996
2 54667  87.9326  34.6525 0001609  67.1297 293.0007 13.21823704 71941
ONEWEB-0604             
1 54668U 22166AC  24142.17888803 -.00000197  00000+0 -50952-3 0  9994
2 54668  87.9315  34.6517 0001766  89.8576 270.2760 13.21826290 71908
ONEWEB-0605             
1 54669U 22166AD  24142.17259590  .00000032  00000+0  46446-4 0  9990
2 54669  87.9313  34.6859 0001438  62.4485 297.6795 13.21828665 71974
ONEWEB-0606             
1 54670U 22166AE  24141.74048912  .00000054  00000+0  99233-4 0  9994
2 54670  87.9319  34.7606 0001924  81.8741 278.2611 13.21827953 71963
